STARLINK-31274          
1 59078U 24041E   26068.05546825  .00000563  00000+0  29958-4 0  9997
2 59078  43.0034 314.3613 0000824 276.4508  83.6250 15.27581829114178
TEVEL2-3                
1 63218U 25052J   26068.64540225  .00020365  00000+0  69446-3 0  9991
2 63218  97.3994 324.7775 0004761 105.7353 254.4413 15.30377031 54855
